IRIDIUM 150             
1 43257U 18030J   23349.41309282  .00000275  00000+0  91150-4 0  9996
2 43257  86.3955 312.7776 0002611  84.6891 275.4602 14.34220652299047
IRIDIUM 143             
1 43258U 18030K   23349.46383322  .00000280  00000+0  92815-4 0  9994
2 43258  86.3959 312.8125 0002291  82.3432 277.8024 14.34216761298983
IRIDIUM 161             
1 43478U 18047C   23349.41801998  .00000410  00000+0  11593-3 0  9993
2 43478  86.4489 110.8135 0002142  96.4410 263.7035 14.43263330293198
IRIDIUM 152             
1 43479U 18047D   23349.43655262  .00000317  00000+0  10625-3 0  9998
2 43479  86.3963 110.6652 0001885  89.6955 270.4457 14.34217378291370
IRIDIUM 147             
1 43480U 18047E   23349.79174379  .00000329  00000+0  11035-3 0  9993
2 43480  86.3965 110.5059 0002162 102.2985 257.8453 14.34219227291424
IRIDIUM 110             
1 43481U 18047F   23349.44922331  .00000332  00000+0  11144-3 0  9990
2 43481  86.3968 110.7171 0002324 102.2058 257.9399 14.34215817291360
IRIDIUM 162             
1 43482U 18047G   23349.41174011  .00000409  00000+0  11571-3 0  9991
2 43482  86.4487 110.7186 0002168  96.2118 263.9330 14.43261562293181
IRIDIUM 160             
1 43569U 18061A   23349.32530630  .00000255  00000+0  84087-4 0  9998
2 43569  86.3969  79.1246 0001787 106.1750 253.9642 14.34216830282243
